{"epoch":1784762836,"count":18316,"objects":[{"id":"31797","name":"SAR LUPE 2","type":"PAYLOAD","l1":"1 31797U 07030A   26203.60202876  .00043295  00000-0  64328-3 0  9990","l2":"2 31797  98.1057 312.5707 0005720 226.7548 133.3227 15.55051183 62432"},{"id":"39088","name":"SAPPHIRE","type":"PAYLOAD","l1":"1 39088U 13009C   26203.57695649  .00000081  00000-0  43250-4 0  9992","l2":"2 39088  98.4280  22.1956 0011998 139.1472 221.0615 14.35249009701654"},{"id":"65565","name":"PRAETORIAN SDA_602","type":"PAYLOAD","l1":"1 65565U 25203A   26203.30371272  .00000087  00000-0  67419-4 0  9993","l2":"2 65565  81.3052 338.2568 0007145 101.4653 258.7307 13.83888829 43557"},{"id":"65566","name":"PRAETORIAN SDA_603","type":"PAYLOAD","l1":"1 65566U 25203B   26203.33162045  .00000088  00000-0  68112-4 0  9995","l2":"2 65566  81.3057 338.1523 0010806  97.4826 262.7559 13.83962192 43568"},{"id":"65567","name":"PRAETORIAN SDA_604","type":"PAYLOAD","l1":"1 65567U 25203C   26202.79513893  .00000110  00000-0  89897-4 0  9995","l2":"2 65567  81.3074 339.1150 0006672 106.6224 253.5665 13.83051108 43467"},{"id":"65568","name":"PRAETORIAN SDA_605","type":"PAYLOAD","l1":"1 65568U 25203D   26203.33279559  .00000113  00000-0  91747-4 0  9995","l2":"2 65568  81.3039 338.2547 0009374  96.3009 263.9215 13.83201247 43554"},{"id":"65569","name":"PRAETORIAN SDA_606","type":"PAYLOAD","l1":"1 65569U 25203E   26203.31797137  .00000065  00000-0  48379-4 0  9990","l2":"2 65569  81.3075 338.5093 0007227  99.9263 260.2710 13.83200571 43548"},{"id":"65570","name":"PRAETORIAN SDA_607","type":"PAYLOAD","l1":"1 65570U 25203F   26203.30545662  .00000156  00000-0  12998-3 0  9993","l2":"2 65570  81.3060 338.1336 0010034  97.5750 262.6547 13.83759652 43560"},{"id":"65571","name":"PRAETORIAN SDA_608","type":"PAYLOAD","l1":"1 65571U 25203G   26203.21536424  .00000107  00000-0  86159-4 0  9997","l2":"2 65571  81.3028 338.3776 0007148 104.1537 256.0415 13.83820485 43536"},{"id":"65572","name":"PRAETORIAN SDA_609","type":"PAYLOAD","l1":"1 65572U 25203H   26202.63209578  .00000107  00000-0  85144-4 0  9993","l2":"2 65572  81.3069 338.8941 0008042 100.5865 259.6198 13.84211906 43461"},{"id":"65573","name":"PRAETORIAN SDA_610","type":"PAYLOAD","l1":"1 65573U 25203J   26203.34337495  .00000107  00000-0  86424-4 0  9995","l2":"2 65573  81.3030 338.2255 0007888 103.1751 257.0285 13.83529321 43553"},{"id":"65574","name":"PRAETORIAN SDA_611","type":"PAYLOAD","l1":"1 65574U 25203K   26203.35341006  .00000122  00000-0  10022-3 0  9997","l2":"2 65574  81.3030 338.4015 0006800 107.4632 252.7268 13.83311350 43541"},{"id":"65575","name":"PRAETORIAN SDA_612","type":"PAYLOAD","l1":"1 65575U 25203L   26202.79346392  .00000159  00000-0  12999-3 0  9993","l2":"2 65575  81.3045 338.4205 0010415  98.9678 261.2659 13.85041956 43509"},{"id":"65576","name":"PRAETORIAN SDA_613","type":"PAYLOAD","l1":"1 65576U 25203M   26202.79510367  .00000090  00000-0  71653-4 0  9996","l2":"2 65576  81.3020 338.9413 0006822 100.2012 259.9914 13.82768516 43463"},{"id":"65577","name":"PRAETORIAN SDA_614","type":"PAYLOAD","l1":"1 65577U 25203N   26203.29495201  .00000066  00000-0  48191-4 0  9996","l2":"2 65577  81.3035 338.0419 0008275  96.6702 263.5397 13.84779194 43579"},{"id":"65578","name":"PRAETORIAN SDA_615","type":"PAYLOAD","l1":"1 65578U 25203P   26203.35274539  .00000132  00000-0  10674-3 0  9991","l2":"2 65578  81.3044 337.9745 0010208  96.4406 263.7913 13.84439079 43579"},{"id":"65579","name":"PRAETORIAN SDA_616","type":"PAYLOAD","l1":"1 65579U 25203Q   26203.35366921  .00000122  00000-0  10032-3 0  9996","l2":"2 65579  81.3084 338.5696 0006684 105.8314 254.3579 13.83270954 43547"},{"id":"65580","name":"PRAETORIAN SDA_617","type":"PAYLOAD","l1":"1 65580U 25203R   26203.30593448  .00000065  00000-0  48708-4 0  9997","l2":"2 65580  81.3059 338.4417 0008548  96.9060 263.3069 13.83152807 43540"},{"id":"65581","name":"PRAETORIAN SDA_618","type":"PAYLOAD","l1":"1 65581U 25203S   26203.61031870  .00000176  00000-0  14741-3 0  9990","l2":"2 65581  81.3044 337.6702 0010927  98.8356 261.4038 13.84226576 43615"},{"id":"65582","name":"PRAETORIAN SDA_619","type":"PAYLOAD","l1":"1 65582U 25203T   26203.29845513  .00000193  00000-0  16354-3 0  9993","l2":"2 65582  81.3066 338.2938 0009359  97.5668 262.6552 13.83807332 44188"},{"id":"65583","name":"PRAETORIAN SDA_620","type":"PAYLOAD","l1":"1 65583U 25203U   26203.33662454  .00000122  00000-0  10021-3 0  9997","l2":"2 65583  81.3052 338.2957 0008668  95.0637 265.1508 13.83208150 43558"},{"id":"65584","name":"PRAETORIAN SDA_621","type":"PAYLOAD","l1":"1 65584U 25203V   26203.30030204  .00000095  00000-0  74591-4 0  9999","l2":"2 65584  81.3041 338.2223 0008516  92.2748 267.9383 13.83804806 43558"},{"id":"65585","name":"PRAETORIAN SDA_601","type":"PAYLOAD","l1":"1 65585U 25203X   26203.21467123  .00000456  00000-0  40524-3 0  9993","l2":"2 65585  81.3060 338.6384 0006730 108.8355 251.3531 13.83171585 43526"},{"id":"69646","name":"VICTUS HAZE PUMA","type":"PAYLOAD","l1":"1 69646U 26142A   26203.48164575  .00004097  00000-0  18544-3 0  9994","l2":"2 69646  97.4452 100.7016 0026557 240.1351 119.7245 15.21156921  5030"}]}